{"type": "FeatureCollection", "features": [ {"type": "Feature", "properties": {"norad_id": 38755, "name": "SPOT 6", "group": "resource", "lat": 70.54597728515525, "lon": 26.63503563152419, "alt_km": 690.1520383994957, "timestamp": "2025-12-11T18:59:45.723197+00:00", "meta": {"OBJECT_NAME": "SPOT 6", "OBJECT_ID": "2012-047A", "EPOCH": "2025-12-11T07:08:28.255200", "MEAN_MOTION": 14.58600492, "ECCENTRICITY": 0.0001085, "INCLINATION": 98.1569, "RA_OF_ASC_NODE": 50.1082, "ARG_OF_PERICENTER": 96.1717, "MEAN_ANOMALY": 263.9606, "EPHEMERIS_TYPE": 0, "CLASSIFICATION_TYPE": "U", "NORAD_CAT_ID": 38755, "ELEMENT_SET_NO": 999, "REV_AT_EPOCH": 70566, "BSTAR": 0.00011295339, "MEAN_MOTION_DOT": 4.8e-06, "MEAN_MOTION_DDOT": 0}, "tle": {"line1": "1 38755U 12047A   25345.29754925  .00000480  00000+0  11295-3 0  9996", "line2": "2 38755  98.1569  50.1082 0001085  96.1717 263.9606 14.58600492705664"}}, "geometry": {"type": "Point", "coordinates": [26.63503563152419, 70.54597728515525]}}, {"type": "Feature", "properties": {"norad_id": 39019, "name": "PLEIADES 1B", "group": "resource", "lat": -28.751526365681617, "lon": 62.983564645379474, "alt_km": 704.0025240473897, "timestamp": "2025-12-11T18:59:45.723208+00:00", "meta": {"OBJECT_NAME": "PLEIADES 1B", "OBJECT_ID": "2012-068A", "EPOCH": "2025-12-11T05:57:26.980416", "MEAN_MOTION": 14.58550075, "ECCENTRICITY": 0.00012107, "INCLINATION": 98.179, "RA_OF_ASC_NODE": 57.9231, "ARG_OF_PERICENTER": 81.8467, "MEAN_ANOMALY": 278.287, "EPHEMERIS_TYPE": 0, "CLASSIFICATION_TYPE": "U", "NORAD_CAT_ID": 39019, "ELEMENT_SET_NO": 999, "REV_AT_EPOCH": 69345, "BSTAR": 0.00011774947, "MEAN_MOTION_DOT": 5.02e-06, "MEAN_MOTION_DDOT": 0}, "tle": {"line1": "1 39019U 12068A   25345.24822894  .00000502  00000+0  11775-3 0  9997", "line2": "2 39019  98.1790  57.9231 0001210  81.8467 278.2870 14.58550075693454"}}, "geometry": {"type": "Point", "coordinates": [62.983564645379474, -28.751526365681617]}}, {"type": "Feature", "properties": {"norad_id": 39030, "name": "GOKTURK 2", "group": "resource", "lat": 49.93024888223296, "lon": 16.733886458054698, "alt_km": 639.109069574557, "timestamp": "2025-12-11T18:59:45.723218+00:00", "meta": {"OBJECT_NAME": "GOKTURK 2", "OBJECT_ID": "2012-073A", "EPOCH": "2025-12-11T07:01:01.564608", "MEAN_MOTION": 14.75286827, "ECCENTRICITY": 9.712e-05, "INCLINATION": 97.6893, "RA_OF_ASC_NODE": 187.0169, "ARG_OF_PERICENTER": 101.2715, "MEAN_ANOMALY": 258.8604, "EPHEMERIS_TYPE": 0, "CLASSIFICATION_TYPE": "U", "NORAD_CAT_ID": 39030, "ELEMENT_SET_NO": 999, "REV_AT_EPOCH": 69680, "BSTAR": 0.00010841241, "MEAN_MOTION_DOT": 6.87e-06, "MEAN_MOTION_DDOT": 0}, "tle": {"line1": "1 39030U 12073A   25345.29237922  .00000687  00000+0  10841-3 0  9990", "line2": "2 39030  97.6893 187.0169 0000971 101.2715 258.8604 14.75286827696807"}}, "geometry": {"type": "Point", "coordinates": [16.733886458054698, 49.93024888223296]}}, {"type": "Feature", "properties": {"norad_id": 39084, "name": "LANDSAT 8", "group": "resource", "lat": 33.515358052934495, "lon": -120.63608547851666, "alt_km": 700.029046384173, "timestamp": "2025-12-11T18:59:45.723229+00:00", "meta": {"OBJECT_NAME": "LANDSAT 8", "OBJECT_ID": "2013-008A", "EPOCH": "2025-12-11T05:08:37.576320", "MEAN_MOTION": 14.57111504, "ECCENTRICITY": 0.00010972, "INCLINATION": 98.2074, "RA_OF_ASC_NODE": 53.3103, "ARG_OF_PERICENTER": 87.7573, "MEAN_ANOMALY": 272.3751, "EPHEMERIS_TYPE": 0, "CLASSIFICATION_TYPE": "U", "NORAD_CAT_ID": 39084, "ELEMENT_SET_NO": 999, "REV_AT_EPOCH": 67052, "BSTAR": 0.00015056654, "MEAN_MOTION_DOT": 6.33e-06, "MEAN_MOTION_DDOT": 0}, "tle": {"line1": "1 39084U 13008A   25345.21432380  .00000633  00000+0  15057-3 0  9990", "line2": "2 39084  98.2074  53.3103 0001097  87.7573 272.3751 14.57111504670521"}}, "geometry": {"type": "Point", "coordinates": [-120.63608547851666, 33.515358052934495]}}, {"type": "Feature", "properties": {"norad_id": 39086, "name": "SARAL", "group": "resource", "lat": -34.37428747092567, "lon": -16.172833001498883, "alt_km": 789.2378235930728, "timestamp": "2025-12-11T18:59:45.723240+00:00", "meta": {"OBJECT_NAME": "SARAL", "OBJECT_ID": "2013-009A", "EPOCH": "2025-12-11T06:15:53.497440", "MEAN_MOTION": 14.32756358, "ECCENTRICITY": 0.00028414, "INCLINATION": 98.5503, "RA_OF_ASC_NODE": 169.2108, "ARG_OF_PERICENTER": 111.365, "MEAN_ANOMALY": 248.7838, "EPHEMERIS_TYPE": 0, "CLASSIFICATION_TYPE": "U", "NORAD_CAT_ID": 39086, "ELEMENT_SET_NO": 999, "REV_AT_EPOCH": 66869, "BSTAR": 0.00010178091, "MEAN_MOTION_DOT": 2.34e-06, "MEAN_MOTION_DDOT": 0}, "tle": {"line1": "1 39086U 13009A   25345.26103585  .00000234  00000+0  10178-3 0  9996", "line2": "2 39086  98.5503 169.2108 0002841 111.3650 248.7838 14.32756358668696"}}, "geometry": {"type": "Point", "coordinates": [-16.172833001498883, -34.37428747092567]}}, {"type": "Feature", "properties": {"norad_id": 39150, "name": "GAOFEN-1", "group": "resource", "lat": -23.189562297608692, "lon": -126.95723436851502, "alt_km": 638.9333455702654, "timestamp": "2025-12-11T18:59:45.723251+00:00", "meta": {"OBJECT_NAME": "GAOFEN-1", "OBJECT_ID": "2013-018A", "EPOCH": "2025-12-11T06:41:39.849216", "MEAN_MOTION": 14.76528041, "ECCENTRICITY": 0.00181008, "INCLINATION": 97.9323, "RA_OF_ASC_NODE": 55.9636, "ARG_OF_PERICENTER": 147.4749, "MEAN_ANOMALY": 212.758, "EPHEMERIS_TYPE": 0, "CLASSIFICATION_TYPE": "U", "NORAD_CAT_ID": 39150, "ELEMENT_SET_NO": 999, "REV_AT_EPOCH": 68051, "BSTAR": 0.0001198759, "MEAN_MOTION_DOT": 7.87e-06, "MEAN_MOTION_DDOT": 0}, "tle": {"line1": "1 39150U 13018A   25345.27893344  .00000787  00000+0  11988-3 0  9991", "line2": "2 39150  97.9323  55.9636 0018100 147.4749 212.7580 14.76528041680516"}}, "geometry": {"type": "Point", "coordinates": [-126.95723436851502, -23.189562297608692]}}, {"type": "Feature", "properties": {"norad_id": 39160, "name": "VNREDSAT 1", "group": "resource", "lat": -54.091782081331594, "lon": 52.20810774092373, "alt_km": 684.9859354873543, "timestamp": "2025-12-11T18:59:45.723261+00:00", "meta": {"OBJECT_NAME": "VNREDSAT 1", "OBJECT_ID": "2013-021B", "EPOCH": "2025-12-11T06:07:54.093216", "MEAN_MOTION": 14.64918175, "ECCENTRICITY": 0.00013232, "INCLINATION": 97.9371, "RA_OF_ASC_NODE": 40.5821, "ARG_OF_PERICENTER": 79.6046, "MEAN_ANOMALY": 280.5307, "EPHEMERIS_TYPE": 0, "CLASSIFICATION_TYPE": "U", "NORAD_CAT_ID": 39160, "ELEMENT_SET_NO": 999, "REV_AT_EPOCH": 67277, "BSTAR": 0.00015609423, "MEAN_MOTION_DOT": 7.89e-06, "MEAN_MOTION_DDOT": 0}, "tle": {"line1": "1 39160U 13021B   25345.25548719  .00000789  00000+0  15609-3 0  9993", "line2": "2 39160  97.9371  40.5821 0001323  79.6046 280.5307 14.64918175672778"}}, "geometry": {"type": "Point", "coordinates": [52.20810774092373, -54.091782081331594]}}, {"type": "Feature", "properties": {"norad_id": 39227, "name": "ARIRANG-5 (KOMPSAT-5)", "group": "resource", "lat": -67.48297619530334, "lon": -28.71563582388937, "alt_km": 562.8928702412186, "timestamp": "2025-12-11T18:59:45.723272+00:00", "meta": {"OBJECT_NAME": "ARIRANG-5 (KOMPSAT-5)", "OBJECT_ID": "2013-042A", "EPOCH": "2025-12-11T06:43:13.558656", "MEAN_MOTION": 15.04492414, "ECCENTRICITY": 0.00037742, "INCLINATION": 97.614, "RA_OF_ASC_NODE": 169.6053, "ARG_OF_PERICENTER": 59.156, "MEAN_ANOMALY": 301.0037, "EPHEMERIS_TYPE": 0, "CLASSIFICATION_TYPE": "U", "NORAD_CAT_ID": 39227, "ELEMENT_SET_NO": 999, "REV_AT_EPOCH": 67560, "BSTAR": 0.00018273496, "MEAN_MOTION_DOT": 2.497e-05, "MEAN_MOTION_DDOT": 0}, "tle": {"line1": "1 39227U 13042A   25345.28001804  .00002497  00000+0  18273-3 0  9990", "line2": "2 39227  97.6140 169.6053 0003774  59.1560 301.0037 15.04492414675601"}}, "geometry": {"type": "Point", "coordinates": [-28.71563582388937, -67.48297619530334]}}, {"type": "Feature", "properties": {"norad_id": 39418, "name": "SKYSAT-A", "group": "resource", "lat": -56.920035877139256, "lon": -155.49781761543787, "alt_km": 524.201872564543, "timestamp": "2025-12-11T18:59:45.723283+00:00", "meta": {"OBJECT_NAME": "SKYSAT-A", "OBJECT_ID": "2013-066C", "EPOCH": "2025-12-11T02:03:34.692480", "MEAN_MOTION": 15.11584453, "ECCENTRICITY": 0.00206489, "INCLINATION": 97.4109, "RA_OF_ASC_NODE": 35.3443, "ARG_OF_PERICENTER": 242.5836, "MEAN_ANOMALY": 117.3295, "EPHEMERIS_TYPE": 0, "CLASSIFICATION_TYPE": "U", "NORAD_CAT_ID": 39418, "ELEMENT_SET_NO": 999, "REV_AT_EPOCH": 66005, "BSTAR": 0.00036067695, "MEAN_MOTION_DOT": 6.089e-05, "MEAN_MOTION_DDOT": 0}, "tle": {"line1": "1 39418U 13066C   25345.08581820  .00006089  00000+0  36068-3 0  9990", "line2": "2 39418  97.4109  35.3443 0020648 242.5836 117.3295 15.11584453660051"}}, "geometry": {"type": "Point", "coordinates": [-155.49781761543787, -56.920035877139256]}}, {"type": "Feature", "properties": {"norad_id": 39419, "name": "DUBAISAT-2", "group": "resource", "lat": 30.46880664785357, "lon": -28.184564993751902, "alt_km": 536.7308141404519, "timestamp": "2025-12-11T18:59:45.723293+00:00", "meta": {"OBJECT_NAME": "DUBAISAT-2", "OBJECT_ID": "2013-066D", "EPOCH": "2025-12-11T06:07:22.988352", "MEAN_MOTION": 15.08337141, "ECCENTRICITY": 0.00108069, "INCLINATION": 97.4456, "RA_OF_ASC_NODE": 335.7081, "ARG_OF_PERICENTER": 326.1582, "MEAN_ANOMALY": 33.8956, "EPHEMERIS_TYPE": 0, "CLASSIFICATION_TYPE": "U", "NORAD_CAT_ID": 39419, "ELEMENT_SET_NO": 999, "REV_AT_EPOCH": 65804, "BSTAR": 0.0005787744, "MEAN_MOTION_DOT": 8.941e-05, "MEAN_MOTION_DDOT": 0}, "tle": {"line1": "1 39419U 13066D   25345.25512718  .00008941  00000+0  57877-3 0  9990", "line2": "2 39419  97.4456 335.7081 0010806 326.1582  33.8956 15.08337141658042"}}, "geometry": {"type": "Point", "coordinates": [-28.184564993751902, 30.46880664785357]}}]}